CREW DRAGON 8           
1 59097U 24042A   24111.84951245  .00028365  00000+0  49370-3 0  9998
2 59097  51.6372 239.7174 0004671  81.5255 278.6263 15.50532816  7190
